OBJECT_NAME,OBJECT_ID,EPOCH,MEAN_MOTION,ECCENTRICITY,INCLINATION,RA_OF_ASC_NODE,ARG_OF_PERICENTER,MEAN_ANOMALY,EPHEMERIS_TYPE,CLASSIFICATION_TYPE,NORAD_CAT_ID,ELEMENT_SET_NO,REV_AT_EPOCH,BSTAR,MEAN_MOTION_DOT,MEAN_MOTION_DDOT
STARLINK-5556,2023-013BG,2026-06-27T16:29:35.501280,15.27544811,.00017932,43.0022,57.0836,278.7089,81.3560,0,U,55385,999,18832,-.98539055E-4,-.297E-4,0
STARLINK-5555,2023-013BH,2026-06-27T22:59:07.936800,15.27585512,.00008668,43.0023,55.6754,264.5601,95.5152,0,U,55386,999,18836,.16224586E-4,.185E-5,0
STARLINK-5085,2023-014B,2026-06-27T20:36:35.831520,14.98334462,.00035728,69.9998,126.5707,261.8161,98.2592,0,U,55392,999,18905,.1406341E-4,.75E-6,0
STARLINK-4786,2023-014C,2026-06-27T21:06:58.148352,14.98329568,.00036999,70.0000,146.5255,263.3712,96.7026,0,U,55393,999,18856,-.91457E-7,-.94E-6,0
STARLINK-5274,2023-014E,2026-06-27T20:54:57.105792,14.98326463,.00029633,69.9995,146.4756,268.6329,91.4491,0,U,55395,999,18856,.38562934E-4,.367E-5,0
STARLINK-5283,2023-014F,2026-06-27T08:11:54.794688,14.98308838,.00039339,69.9998,147.8471,262.1559,97.9154,0,U,55396,999,18848,-.18352232E-3,-.2281E-4,0
STARLINK-5224,2023-014G,2026-06-27T21:42:44.161056,14.98326435,.00031394,69.9999,126.7170,274.9290,85.1510,0,U,55397,999,18905,.21679272E-3,.2494E-4,0
STARLINK-5275,2023-014H,2026-06-27T06:59:47.354784,14.98338718,.00038407,69.9996,148.0719,262.5334,97.5389,0,U,55398,999,18847,-.10432556E-3,-.1338E-4,0
STARLINK-5276,2023-014J,2026-06-27T14:48:26.385984,14.98330622,.00035421,69.9997,147.2012,266.1540,93.9214,0,U,55399,999,18852,.12815413E-4,.6E-6,0
STARLINK-5632,2023-014K,2026-06-27T15:12:29.494944,14.98321030,.0003728,69.9995,147.2549,271.6417,88.4315,0,U,55400,999,18852,.77805723E-4,.835E-5,0
STARLINK-5076,2023-014L,2026-06-27T14:54:27.080928,14.98329919,.00037126,69.9997,147.2156,263.3019,96.7718,0,U,55401,999,18852,.1022561E-4,.29E-6,0
STARLINK-5071,2023-014M,2026-06-27T15:24:30.667104,14.98329001,.00029707,69.9996,147.2894,269.6852,90.3967,0,U,55402,999,18852,-.11214213E-4,-.227E-5,0
STARLINK-5597,2023-014N,2026-06-27T21:31:00.799392,14.98329311,.00032673,69.9998,146.5726,266.0901,93.9884,0,U,55403,999,18856,-.1839181E-5,-.115E-5,0
STARLINK-5607,2023-014P,2026-06-27T22:01:04.082304,14.98329054,.00032496,69.9997,146.6459,267.8046,92.2741,0,U,55404,999,18856,.1823484E-4,.125E-5,0
STARLINK-5623,2023-014Q,2026-06-27T15:18:29.784672,14.98328749,.00037098,69.9995,147.2749,263.1794,96.8943,0,U,55405,999,18852,.5762416E-5,-.24E-6,0
STARLINK-5630,2023-014R,2026-06-27T15:42:32.322528,14.98332905,.00034593,69.9997,147.3346,266.5355,93.5408,0,U,55406,999,18852,-.33790139E-4,-.496E-5,0
STARLINK-5019,2023-014S,2026-06-27T21:55:03.768384,14.98338314,.00027826,69.9997,146.6311,271.2030,88.8810,0,U,55407,999,18856,.17068292E-4,.111E-5,0
STARLINK-5633,2023-014V,2026-06-27T23:01:28.677216,14.98329172,.00034342,69.9992,166.2585,265.8336,94.2431,0,U,55410,999,18808,.60995015E-4,.635E-5,0
STARLINK-5605,2023-014W,2026-06-27T07:53:53.814048,14.98340550,.00032452,69.9998,148.2062,266.6906,93.3882,0,U,55411,999,18847,.89769772E-4,.979E-5,0
STARLINK-5060,2023-014Y,2026-06-27T22:55:25.436064,14.98343636,.00037834,69.9985,166.2432,271.4863,88.5862,0,U,55413,999,18808,.12992106E-3,.1458E-4,0
STARLINK-5620,2023-014Z,2026-06-27T23:19:29.349408,14.98329241,.00036492,69.9995,166.3023,266.0531,94.0211,0,U,55414,999,18808,.15649227E-4,.94E-6,0
STARLINK-5624,2023-014AB,2026-06-27T21:55:22.577664,14.98329400,.00037538,69.9996,166.5002,265.1021,94.9710,0,U,55416,999,18807,.18835656E-4,.132E-5,0
STARLINK-5030,2023-014AD,2026-06-27T22:07:24.066912,14.98327895,.00037721,69.9996,166.5295,268.6647,91.4080,0,U,55418,999,18807,-.1163876E-4,-.232E-5,0
STARLINK-5629,2023-014AE,2026-06-27T23:25:30.012384,14.98329192,.00037729,69.9996,166.3176,263.6076,96.4653,0,U,55419,999,18808,.25594374E-4,.212E-5,0
STARLINK-5604,2023-014AF,2026-06-27T22:42:47.289888,14.98336803,.00035715,69.9994,126.4833,263.9801,96.0952,0,U,55420,999,18906,.10779115E-4,.36E-6,0
STARLINK-5598,2023-014AG,2026-06-27T22:01:24.747456,14.98329519,.00037343,69.9994,166.5155,266.8564,93.2167,0,U,55421,999,18807,.98170973E-4,.1078E-4,0
STARLINK-5006,2023-014AH,2026-06-27T23:07:28.005312,14.98327549,.00040462,69.9995,166.2695,262.2122,97.8578,0,U,55422,999,18808,.4039466E-5,-.45E-6,0
STARLINK-5068,2023-014AJ,2026-06-27T16:00:54.499680,14.98325619,.0002996,69.9995,167.2457,268.6982,91.3834,0,U,55423,999,18803,.3589457E-5,-.5E-6,0
STARLINK-5615,2023-014AL,2026-06-27T09:24:20.268000,14.98329453,.0003219,69.9996,167.8914,266.2598,93.8193,0,U,55425,999,18799,-.17829128E-4,-.306E-5,0
STARLINK-5638,2023-014AM,2026-06-27T22:37:27.091488,14.98331179,.00033658,69.9993,166.6033,268.8169,91.2605,0,U,55426,999,18807,.19616645E-4,.141E-5,0
STARLINK-5064,2023-014AP,2026-06-27T22:49:28.435584,14.98327188,.00037755,69.9991,166.6326,264.0675,96.0054,0,U,55428,999,18807,.7589004E-5,-.3E-7,0
STARLINK-5645,2023-014AQ,2026-06-27T16:06:55.663776,14.98332945,.00037965,69.9992,167.2620,267.9713,92.1011,0,U,55429,999,18803,.7416808E-5,-.5E-7,0
STARLINK-5642,2023-014AR,2026-06-27T17:31:20.314272,14.98330342,.00035046,69.9991,186.9221,271.9148,88.1610,0,U,55430,999,18755,.4557272E-5,-.39E-6,0
STARLINK-5643,2023-014AS,2026-06-27T22:43:27.842592,14.98329495,.00035644,69.9990,166.6182,267.5001,92.5750,0,U,55431,999,18807,.18728963E-4,.13E-5,0
STARLINK-5637,2023-014AT,2026-06-27T17:43:36.116544,14.98319259,.00035954,69.9990,186.9523,268.5544,91.5204,0,U,55432,999,18755,.51516098E-4,.521E-5,0
STARLINK-5570,2023-014AU,2026-06-27T17:25:19.404192,14.98330137,.00037115,69.9991,186.9075,267.6840,92.3894,0,U,55433,999,18755,.16881353E-4,.108E-5,0
STARLINK-5621,2023-014AV,2026-06-27T17:55:22.950624,14.98328588,.00036392,69.9993,186.9813,267.6818,92.3924,0,U,55434,999,18755,-.5616392E-5,-.16E-5,0
STARLINK-5626,2023-014AW,2026-06-27T17:43:21.529632,14.98329384,.00036422,69.9993,186.9528,266.2881,93.7861,0,U,55435,999,18755,-.6203862E-5,-.167E-5,0
STARLINK-5640,2023-014AX,2026-06-27T18:01:23.652480,14.98328097,.00034362,69.9992,186.9953,268.5280,91.5486,0,U,55436,999,18755,.1582326E-5,-.74E-6,0
STARLINK-5074,2023-014AZ,2026-06-27T07:59:51.653472,14.98331832,.00036903,69.9998,147.8315,264.3381,95.7357,0,U,55438,999,18848,.16935255E-4,.109E-5,0
STARLINK-5634,2023-014BA,2026-06-27T18:07:24.304224,14.98327111,.00037818,69.9988,187.0105,264.7363,95.3365,0,U,55439,999,18755,-.48950203E-4,-.677E-5,0
STARLINK-5699,2023-015A,2026-06-27T23:10:01.440480,15.27576815,.00013021,43.0036,66.2578,262.5554,97.5150,0,U,55449,999,18852,.39305071E-4,.819E-5,0
STARLINK-5686,2023-015B,2026-06-27T23:04:27.992640,15.27579512,.00022456,43.0031,66.2309,272.5808,87.4786,0,U,55450,999,18852,.29198755E-4,.541E-5,0
STARLINK-5656,2023-015C,2026-06-27T23:15:34.408800,15.27574513,.00013484,43.0023,66.2861,266.0473,94.0224,0,U,55451,999,18758,.29917115E-4,.561E-5,0
STARLINK-5683,2023-015D,2026-06-27T23:26:39.367392,15.27622481,.00010823,43.0025,66.3339,221.0239,139.0532,0,U,55452,999,18758,-.3953389E-3,-.11139E-3,0
STARLINK-5684,2023-015E,2026-06-27T22:16:21.674496,15.27574263,.00013079,43.0057,65.9793,265.4395,94.6308,0,U,55453,999,18758,.12704161E-4,.87E-6,0
STARLINK-5636,2023-015F,2026-06-27T16:14:32.279136,15.27573701,.00014233,43.0063,67.5257,277.7300,82.3391,0,U,55454,999,18754,.33027575E-4,.647E-5,0
STARLINK-5680,2023-015G,2026-06-27T23:21:08.135712,15.27577828,.00011151,43.0035,66.3140,223.3335,136.7429,0,U,55455,999,18758,.8670875E-5,-.23E-6,0
STARLINK-5058,2023-015H,2026-06-27T16:10:50.008224,15.27576285,.0001453,43.0046,67.5144,264.1363,95.9323,0,U,55456,999,18754,.11198866E-4,.46E-6,0
STARLINK-5682,2023-015J,2026-06-27T22:21:54.905472,15.27582935,.00012941,43.0054,66.0083,269.0572,91.0132,0,U,55457,999,18758,-.32681795E-4,-.1161E-4,0
STARLINK-5020,2023-015K,2026-06-27T22:53:23.172288,15.27576259,.00013344,43.0062,66.1660,255.2429,104.8275,0,U,55458,999,18758,-.34923213E-4,-.1223E-4,0
STARLINK-5669,2023-015L,2026-06-27T17:59:47.546304,15.27575520,.00015125,43.0061,67.2196,264.8598,95.2081,0,U,55459,999,18755,.5504506E-5,-.111E-5,0
STARLINK-5678,2023-015M,2026-06-27T18:05:20.978592,15.27581247,.00015298,43.0041,67.2462,268.9537,91.1139,0,U,55460,999,18755,.69851368E-4,.166E-4,0
STARLINK-5646,2023-015N,2026-06-27T16:20:05.196480,15.27573137,.00016675,43.0062,67.5602,265.8011,94.2650,0,U,55461,999,18754,.35544727E-4,.716E-5,0
STARLINK-5673,2023-015P,2026-06-27T23:46:48.887904,15.27576847,.0001066,43.0025,65.5829,271.4975,88.5754,0,U,55462,999,18759,.19770133E-4,.282E-5,0
STARLINK-5677,2023-015Q,2026-06-27T23:31:42.185568,15.18186491,.0005283,42.9976,74.8996,210.4557,149.5985,0,U,55463,999,18748,.1245918E-2,.25808E-3,0
STARLINK-5676,2023-015R,2026-06-27T17:50:32.449632,15.27576621,.00017323,43.0047,67.1662,274.6726,85.3928,0,U,55464,999,18755,.63008264E-4,.1472E-4,0
STARLINK-5674,2023-015S,2026-06-27T22:18:12.492864,15.27576110,.00013656,43.0054,65.9824,265.8527,94.2169,0,U,55465,999,18758,.2182751E-5,-.202E-5,0
STARLINK-5628,2023-015T,2026-06-27T22:49:42.136896,15.27549562,.00018146,43.0048,66.1432,268.7834,91.2810,0,U,55466,999,18758,-.58132347E-4,-.186E-4,0
STARLINK-5679,2023-015U,2026-06-27T23:41:15.822816,15.27572345,.00011867,43.0032,65.5529,264.0939,95.9777,0,U,55467,999,18759,.11934495E-4,.66E-6,0
STARLINK-5672,2023-015V,2026-06-27T16:21:59.365440,15.27423567,.00024042,43.0069,67.5666,260.0744,99.9837,0,U,55468,999,18754,.10684043E-2,.29115E-3,0
STARLINK-5681,2023-015W,2026-06-27T16:07:08.600448,15.27555144,.0001668,43.0060,67.4884,261.4973,98.5690,0,U,55469,999,18754,-.33120733E-4,-.1173E-4,0
STARLINK-5708,2023-015X,2026-06-27T18:01:38.637696,15.27566074,.00013713,43.0047,67.2232,250.7825,109.2878,0,U,55470,999,18755,-.8402188E-5,-.493E-5,0
STARLINK-5711,2023-015Y,2026-06-27T23:44:57.843168,15.27574643,.00009668,43.0053,65.5686,257.9908,102.0836,0,U,55471,999,18759,.27456634E-4,.493E-5,0
